[{"OBJECT_NAME":"STARLINK-31021","OBJECT_ID":"2023-191L","EPOCH":"2026-03-09T10:46:24.056256","MEAN_MOTION":15.26741054,"ECCENTRICITY":0.00014076,"INCLINATION":43,"RA_OF_ASC_NODE":104.8427,"ARG_OF_PERICENTER":267.8,"MEAN_ANOMALY":92.269,"EPHEMERIS_TYPE":0,"CLASSIFICATION_TYPE":"U","NORAD_CAT_ID":58518,"ELEMENT_SET_NO":999,"REV_AT_EPOCH":12543,"BSTAR":3.3885289e-5,"MEAN_MOTION_DOT":6.49e-6,"MEAN_MOTION_DDOT":0},{"OBJECT_NAME":"FOSSASAT-2E20 (TAT-O)","OBJECT_ID":"2025-009DN","EPOCH":"2026-03-09T17:00:18.734688","MEAN_MOTION":15.2699108,"ECCENTRICITY":0.00021892,"INCLINATION":97.3231,"RA_OF_ASC_NODE":146.2859,"ARG_OF_PERICENTER":347.5575,"MEAN_ANOMALY":12.561,"EPHEMERIS_TYPE":0,"CLASSIFICATION_TYPE":"U","NORAD_CAT_ID":63003,"ELEMENT_SET_NO":999,"REV_AT_EPOCH":12131,"BSTAR":0.00061862572,"MEAN_MOTION_DOT":0.00016337,"MEAN_MOTION_DDOT":0}]
